IRIDIUM 166             
1 43570U 18061B   23252.58174314  .00000228  00000+0  74191-4 0  9999
2 43570  86.3952 119.5546 0002131  79.2896 280.8539 14.34217419268404
IRIDIUM 158             
1 43571U 18061C   23252.55003012  .00000308  00000+0  10308-3 0  9991
2 43571  86.3952 119.5767 0001778  78.8426 281.2970 14.34215591268368
IRIDIUM 165             
1 43572U 18061D   23252.57540227  .00000313  00000+0  10489-3 0  9994
2 43572  86.3954 119.5934 0001724  78.9166 281.2223 14.34214641268399
IRIDIUM 155             
1 43573U 18061E   23252.60712037  .00000293  00000+0  97394-4 0  9997
2 43573  86.3950 119.4989 0002346  84.4405 275.7059 14.34216931268360
IRIDIUM 154             
1 43574U 18061F   23252.58808432  .00000035  00000+0  53244-5 0  9991
2 43574  86.3953 119.5911 0001951  92.5116 267.6304 14.34216745268412
IRIDIUM 163             
1 43575U 18061G   23252.56906050  .00000315  00000+0  10547-3 0  9993
2 43575  86.3952 119.5458 0002007  86.7261 273.4165 14.34217197268385
IRIDIUM 156             
1 43576U 18061H   23252.61345766  .00000331  00000+0  11111-3 0  9997
2 43576  86.3950 119.5332 0002151  78.4223 281.7214 14.34217379268380
IRIDIUM 164             
1 43577U 18061J   23252.59442601  .00000296  00000+0  98732-4 0  9996
2 43577  86.3952 119.5658 0001926  80.8400 279.3013 14.34219720268424
